HAWK-6B                 
1 55324U 23011A   26194.41160527  .00002471  00000+0  11057-3 0  9994
2 55324  40.4967 199.0865 0003943 231.0284 129.0174 15.23143561191846
HAWK-6C                 
1 55326U 23011C   26194.41097653  .00002607  00000+0  11621-3 0  9993
2 55326  40.4959 195.9257 0004444 223.1928 136.8534 15.23146024191857
HAWK-6A                 
1 55327U 23011D   26194.41101302  .00002610  00000+0  11634-3 0  9999
2 55327  40.4967 197.5527 0003966 220.6915 139.3598 15.23145096191857
HAWK-7A                 
1 56191U 23054P   26195.16550834  .00003240  00000+0  12263-3 0  9996
2 56191  97.2666  81.8169 0001509 339.6555  20.4624 15.27626189181144
HAWK-7B                 
1 56193U 23054R   26195.16543819  .00003206  00000+0  12141-3 0  9990
2 56193  97.2694  80.0906 0001442  18.5615 341.5677 15.27624450181147
HAWK-7C                 
1 56200U 23054Y   26195.16531679  .00003220  00000+0  12190-3 0  9990
2 56200  97.2673  80.8513 0000983   1.3784 358.7458 15.27627386181149
